0 FENGYUN 1C DEB
1 31568U 99025BZK 13281.12777159  .00001645  00000-0  14691-2 0  4020
2 31568 102.0776 242.0535 0160776 064.0699 297.6989 13.80973247329929
0 FENGYUN 1C DEB
1 31568U 99025BZK 13283.73584938  .00001669  00000-0  14929-2 0  4031
2 31568 102.0751 245.3631 0158789 058.3003 303.4318 13.80983587330282
0 FENGYUN 1C DEB
1 31568U 99025BZK 13285.69187761  .00001974  00000-0  17492-2 0  4049
2 31568 102.0838 247.8758 0161250 053.8620 307.8384 13.80997796330555
0 FENGYUN 1C DEB
1 31568U 99025BZK 13287.72032502  .00001999  00000-0  17696-2 0  4051
2 31568 102.0849 250.4628 0161863 048.9810 312.5370 13.81006746330835
0 FENGYUN 1C DEB
1 31568U 99025BZK 13289.74877076  .00002024  00000-0  17911-2 0  4069
2 31568 102.0854 253.0482 0161718 044.1480 317.2535 13.81015877331110
0 FENGYUN 1C DEB
1 31568U 99025BZK 13292.71897148  .00002067  00000-0  18238-2 0  4073
2 31568 102.0787 256.8309 0163238 036.1899 325.0238 13.81029955331522
0 FENGYUN 1C DEB
1 31568U 99025BZK 13292.79141343  .00002104  00000-0  18585-2 0  4088
2 31568 102.0820 256.9240 0162049 036.5319 324.7193 13.81031450331535
